KOREASAT 6              
1 37265U 10070B   26073.52885527  .00000000  00000+0  00000+0 0  9999
2 37265   0.0264 153.2729 0002073 197.4142 171.7437  1.00270186 55821
BEIDOU-2 IGSO-3         
1 37384U 11013A   26064.72099782 -.00000170  00000+0  00000+0 0  9990
2 37384  62.2726  41.1265 0035062 190.7769 297.3260  1.00293315 54626
INTELSAT 28 (IS-28)     
1 37392U 11016A   26073.41961754 -.00000225  00000+0  00000+0 0  9996
2 37392   1.5596  83.8361 0004605 273.2966 294.2661  1.00272010 52337
YAHSAT 1A               
1 37393U 11016B   26072.33239168  .00000101  00000+0  00000+0 0  9996
2 37393   0.0141 171.8070 0003591 192.6770 338.6301  1.00272305 41444
SBIRS GEO-1 (USA 230)   
1 37481U 11019A   26072.15249010  .00000102  00000+0  00000+0 0  9995
2 37481   4.3256  53.0987 0002318 296.7572 287.6177  1.00272453 54437
TELSTAR 14R             
1 37602U 11021A   26073.55598206  .00000000  00000+0  00000+0 0  9999
2 37602   0.0250 147.8978 0002227 212.2088 309.2273  1.00268476 54882
GSAT-8                  
1 37605U 11022A   26073.57938216  .00000085  00000+0  00000+0 0  9997
2 37605   1.8849  83.0143 0006862 216.9892 135.8320  1.00270917 52265
ST-2                    
1 37606U 11022B   26073.58596885 -.00000212  00000+0  00000+0 0  9994
2 37606   0.0152 149.9341 0001847 226.4090  94.8213  1.00272277 54336
ZHONGXING-10            
1 37677U 11026A   26073.58544885 -.00000190  00000+0  00000+0 0  9994
2 37677   0.8007  85.3911 0002336 285.6977  97.3652  1.00275664 54059
SES-3                   
1 37748U 11035A   26073.54809536 -.00000102  00000+0  00000+0 0  9999
2 37748   1.0803  84.1640 0003565 276.8679 265.4359  1.00272143 53642
KAZSAT-2                
1 37749U 11035B   26072.30253380  .00000000  00000+0  00000+0 0  9999
2 37749   0.0220 128.3753 0001049 270.5416 327.4475  1.00274315 52433
BEIDOU-2 IGSO-4         
1 37763U 11038A   26073.67850758 -.00000094  00000+0  00000+0 0  9995
2 37763  54.5890 166.5291 0155362 231.0639 113.0622  1.00264299 53696
ASTRA 1N                
1 37775U 11041A   26073.57227546  .00000119  00000+0  00000+0 0  9991
2 37775   0.0818  37.7358 0004692 350.1404   9.5086  1.00273329 43573
BSAT-3C (JCSAT-110R)    
1 37776U 11041B   26072.66321653 -.00000350  00000+0  00000+0 0  9993
2 37776   0.0068 209.1458 0000150 248.6013  62.2312  1.00267547 49512
PAKSAT-1R               
1 37779U 11042A   26073.57600215  .00000153  00000+0  00000+0 0  9992
2 37779   0.4420  85.5864 0002357 302.7147  29.1451  1.00268130 53520
SES-2                   
1 37809U 11049A   26073.55121537 -.00000197  00000+0  00000+0 0  9995
2 37809   0.0352  73.8833 0002820 282.8393 286.8731  1.00272471 53016
ARABSAT-5C              
1 37810U 11049B   26073.57244881  .00000123  00000+0  00000+0 0  9995
2 37810   0.0592  21.7332 0002810 333.1175  43.3960  1.00273225 53082
