[{"OBJECT_NAME":"KOREASAT 6","OBJECT_ID":"2010-070B","EPOCH":"2026-03-14T12:41:33.095328","MEAN_MOTION":1.00270186,"ECCENTRICITY":0.00020733,"INCLINATION":0.0264,"RA_OF_ASC_NODE":153.2729,"ARG_OF_PERICENTER":197.4142,"MEAN_ANOMALY":171.7437,"EPHEMERIS_TYPE":0,"CLASSIFICATION_TYPE":"U","NORAD_CAT_ID":37265,"ELEMENT_SET_NO":999,"REV_AT_EPOCH":5582,"BSTAR":0,"MEAN_MOTION_DOT":0,"MEAN_MOTION_DDOT":0},{"OBJECT_NAME":"BEIDOU-2 IGSO-3","OBJECT_ID":"2011-013A","EPOCH":"2026-03-05T17:18:14.211648","MEAN_MOTION":1.00293315,"ECCENTRICITY":0.00350621,"INCLINATION":62.2726,"RA_OF_ASC_NODE":41.1265,"ARG_OF_PERICENTER":190.7769,"MEAN_ANOMALY":297.326,"EPHEMERIS_TYPE":0,"CLASSIFICATION_TYPE":"U","NORAD_CAT_ID":37384,"ELEMENT_SET_NO":999,"REV_AT_EPOCH":5462,"BSTAR":0,"MEAN_MOTION_DOT":-1.7e-6,"MEAN_MOTION_DDOT":0},{"OBJECT_NAME":"INTELSAT 28 (IS-28)","OBJECT_ID":"2011-016A","EPOCH":"2026-03-14T10:04:14.955456","MEAN_MOTION":1.0027201,"ECCENTRICITY":0.00046056,"INCLINATION":1.5596,"RA_OF_ASC_NODE":83.8361,"ARG_OF_PERICENTER":273.2966,"MEAN_ANOMALY":294.2661,"EPHEMERIS_TYPE":0,"CLASSIFICATION_TYPE":"U","NORAD_CAT_ID":37392,"ELEMENT_SET_NO":999,"REV_AT_EPOCH":5233,"BSTAR":0,"MEAN_MOTION_DOT":-2.25e-6,"MEAN_MOTION_DDOT":0},{"OBJECT_NAME":"YAHSAT 1A","OBJECT_ID":"2011-016B","EPOCH":"2026-03-13T07:58:38.641152","MEAN_MOTION":1.00272305,"ECCENTRICITY":0.00035915,"INCLINATION":0.0141,"RA_OF_ASC_NODE":171.807,"ARG_OF_PERICENTER":192.677,"MEAN_ANOMALY":338.6301,"EPHEMERIS_TYPE":0,"CLASSIFICATION_TYPE":"U","NORAD_CAT_ID":37393,"ELEMENT_SET_NO":999,"REV_AT_EPOCH":4144,"BSTAR":0,"MEAN_MOTION_DOT":1.01e-6,"MEAN_MOTION_DDOT":0},{"OBJECT_NAME":"SBIRS GEO-1 (USA 230)","OBJECT_ID":"2011-019A","EPOCH":"2026-03-13T03:39:35.144640","MEAN_MOTION":1.00272453,"ECCENTRICITY":0.00023185,"INCLINATION":4.3256,"RA_OF_ASC_NODE":53.0987,"ARG_OF_PERICENTER":296.7572,"MEAN_ANOMALY":287.6177,"EPHEMERIS_TYPE":0,"CLASSIFICATION_TYPE":"U","NORAD_CAT_ID":37481,"ELEMENT_SET_NO":999,"REV_AT_EPOCH":5443,"BSTAR":0,"MEAN_MOTION_DOT":1.02e-6,"MEAN_MOTION_DDOT":0},{"OBJECT_NAME":"TELSTAR 14R","OBJECT_ID":"2011-021A","EPOCH":"2026-03-14T13:20:36.849984","MEAN_MOTION":1.00268476,"ECCENTRICITY":0.00022273,"INCLINATION":0.025,"RA_OF_ASC_NODE":147.8978,"ARG_OF_PERICENTER":212.2088,"MEAN_ANOMALY":309.2273,"EPHEMERIS_TYPE":0,"CLASSIFICATION_TYPE":"U","NORAD_CAT_ID":37602,"ELEMENT_SET_NO":999,"REV_AT_EPOCH":5488,"BSTAR":0,"MEAN_MOTION_DOT":0,"MEAN_MOTION_DDOT":0},{"OBJECT_NAME":"GSAT-8","OBJECT_ID":"2011-022A","EPOCH":"2026-03-14T13:54:18.618624","MEAN_MOTION":1.00270917,"ECCENTRICITY":0.00068626,"INCLINATION":1.8849,"RA_OF_ASC_NODE":83.0143,"ARG_OF_PERICENTER":216.9892,"MEAN_ANOMALY":135.832,"EPHEMERIS_TYPE":0,"CLASSIFICATION_TYPE":"U","NORAD_CAT_ID":37605,"ELEMENT_SET_NO":999,"REV_AT_EPOCH":5226,"BSTAR":0,"MEAN_MOTION_DOT":8.5e-7,"MEAN_MOTION_DDOT":0},{"OBJECT_NAME":"ST-2","OBJECT_ID":"2011-022B","EPOCH":"2026-03-14T14:03:47.708640","MEAN_MOTION":1.00272277,"ECCENTRICITY":0.0001847,"INCLINATION":0.0152,"RA_OF_ASC_NODE":149.9341,"ARG_OF_PERICENTER":226.409,"MEAN_ANOMALY":94.8213,"EPHEMERIS_TYPE":0,"CLASSIFICATION_TYPE":"U","NORAD_CAT_ID":37606,"ELEMENT_SET_NO":999,"REV_AT_EPOCH":5433,"BSTAR":0,"MEAN_MOTION_DOT":-2.12e-6,"MEAN_MOTION_DDOT":0},{"OBJECT_NAME":"ZHONGXING-10","OBJECT_ID":"2011-026A","EPOCH":"2026-03-14T14:03:02.780640","MEAN_MOTION":1.00275664,"ECCENTRICITY":0.00023367,"INCLINATION":0.8007,"RA_OF_ASC_NODE":85.3911,"ARG_OF_PERICENTER":285.6977,"MEAN_ANOMALY":97.3652,"EPHEMERIS_TYPE":0,"CLASSIFICATION_TYPE":"U","NORAD_CAT_ID":37677,"ELEMENT_SET_NO":999,"REV_AT_EPOCH":5405,"BSTAR":0,"MEAN_MOTION_DOT":-1.9e-6,"MEAN_MOTION_DDOT":0},{"OBJECT_NAME":"SES-3","OBJECT_ID":"2011-035A","EPOCH":"2026-03-14T13:09:15.439104","MEAN_MOTION":1.00272143,"ECCENTRICITY":0.00035654,"INCLINATION":1.0803,"RA_OF_ASC_NODE":84.164,"ARG_OF_PERICENTER":276.8679,"MEAN_ANOMALY":265.4359,"EPHEMERIS_TYPE":0,"CLASSIFICATION_TYPE":"U","NORAD_CAT_ID":37748,"ELEMENT_SET_NO":999,"REV_AT_EPOCH":5364,"BSTAR":0,"MEAN_MOTION_DOT":-1.02e-6,"MEAN_MOTION_DDOT":0},{"OBJECT_NAME":"KAZSAT-2","OBJECT_ID":"2011-035B","EPOCH":"2026-03-13T07:15:38.920320","MEAN_MOTION":1.00274315,"ECCENTRICITY":0.00010492,"INCLINATION":0.022,"RA_OF_ASC_NODE":128.3753,"ARG_OF_PERICENTER":270.5416,"MEAN_ANOMALY":327.4475,"EPHEMERIS_TYPE":0,"CLASSIFICATION_TYPE":"U","NORAD_CAT_ID":37749,"ELEMENT_SET_NO":999,"REV_AT_EPOCH":5243,"BSTAR":0,"MEAN_MOTION_DOT":0,"MEAN_MOTION_DDOT":0},{"OBJECT_NAME":"BEIDOU-2 IGSO-4","OBJECT_ID":"2011-038A","EPOCH":"2026-03-14T16:17:03.054912","MEAN_MOTION":1.00264299,"ECCENTRICITY":0.01553623,"INCLINATION":54.589,"RA_OF_ASC_NODE":166.5291,"ARG_OF_PERICENTER":231.0639,"MEAN_ANOMALY":113.0622,"EPHEMERIS_TYPE":0,"CLASSIFICATION_TYPE":"U","NORAD_CAT_ID":37763,"ELEMENT_SET_NO":999,"REV_AT_EPOCH":5369,"BSTAR":0,"MEAN_MOTION_DOT":-9.4e-7,"MEAN_MOTION_DDOT":0},{"OBJECT_NAME":"ASTRA 1N","OBJECT_ID":"2011-041A","EPOCH":"2026-03-14T13:44:04.599744","MEAN_MOTION":1.00273329,"ECCENTRICITY":0.00046921,"INCLINATION":0.0818,"RA_OF_ASC_NODE":37.7358,"ARG_OF_PERICENTER":350.1404,"MEAN_ANOMALY":9.5086,"EPHEMERIS_TYPE":0,"CLASSIFICATION_TYPE":"U","NORAD_CAT_ID":37775,"ELEMENT_SET_NO":999,"REV_AT_EPOCH":4357,"BSTAR":0,"MEAN_MOTION_DOT":1.19e-6,"MEAN_MOTION_DDOT":0},{"OBJECT_NAME":"BSAT-3C (JCSAT-110R)","OBJECT_ID":"2011-041B","EPOCH":"2026-03-13T15:55:01.908192","MEAN_MOTION":1.00267547,"ECCENTRICITY":1.507e-5,"INCLINATION":0.0068,"RA_OF_ASC_NODE":209.1458,"ARG_OF_PERICENTER":248.6013,"MEAN_ANOMALY":62.2312,"EPHEMERIS_TYPE":0,"CLASSIFICATION_TYPE":"U","NORAD_CAT_ID":37776,"ELEMENT_SET_NO":999,"REV_AT_EPOCH":4951,"BSTAR":0,"MEAN_MOTION_DOT":-3.5e-6,"MEAN_MOTION_DDOT":0},{"OBJECT_NAME":"PAKSAT-1R","OBJECT_ID":"2011-042A","EPOCH":"2026-03-14T13:49:26.585760","MEAN_MOTION":1.0026813,"ECCENTRICITY":0.00023575,"INCLINATION":0.442,"RA_OF_ASC_NODE":85.5864,"ARG_OF_PERICENTER":302.7147,"MEAN_ANOMALY":29.1451,"EPHEMERIS_TYPE":0,"CLASSIFICATION_TYPE":"U","NORAD_CAT_ID":37779,"ELEMENT_SET_NO":999,"REV_AT_EPOCH":5352,"BSTAR":0,"MEAN_MOTION_DOT":1.53e-6,"MEAN_MOTION_DDOT":0},{"OBJECT_NAME":"SES-2","OBJECT_ID":"2011-049A","EPOCH":"2026-03-14T13:13:45.007968","MEAN_MOTION":1.00272471,"ECCENTRICITY":0.00028206,"INCLINATION":0.0352,"RA_OF_ASC_NODE":73.8833,"ARG_OF_PERICENTER":282.8393,"MEAN_ANOMALY":286.8731,"EPHEMERIS_TYPE":0,"CLASSIFICATION_TYPE":"U","NORAD_CAT_ID":37809,"ELEMENT_SET_NO":999,"REV_AT_EPOCH":5301,"BSTAR":0,"MEAN_MOTION_DOT":-1.97e-6,"MEAN_MOTION_DDOT":0},{"OBJECT_NAME":"ARABSAT-5C","OBJECT_ID":"2011-049B","EPOCH":"2026-03-14T13:44:19.577184","MEAN_MOTION":1.00273225,"ECCENTRICITY":0.00028106,"INCLINATION":0.0592,"RA_OF_ASC_NODE":21.7332,"ARG_OF_PERICENTER":333.1175,"MEAN_ANOMALY":43.396,"EPHEMERIS_TYPE":0,"CLASSIFICATION_TYPE":"U","NORAD_CAT_ID":37810,"ELEMENT_SET_NO":999,"REV_AT_EPOCH":5308,"BSTAR":0,"MEAN_MOTION_DOT":1.23e-6,"MEAN_MOTION_DDOT":0}]
